[{"OBJECT_NAME":"KUIPER-00149","OBJECT_ID":"2025-228X","EPOCH":"2026-03-09T21:19:04.016352","MEAN_MOTION":14.80004702,"ECCENTRICITY":0.00017534,"INCLINATION":51.9019,"RA_OF_ASC_NODE":337.2239,"ARG_OF_PERICENTER":84.5973,"MEAN_ANOMALY":275.5189,"EPHEMERIS_TYPE":0,"CLASSIFICATION_TYPE":"U","NORAD_CAT_ID":65968,"ELEMENT_SET_NO":999,"REV_AT_EPOCH":2357,"BSTAR":0.00078763897,"MEAN_MOTION_DOT":5.798e-5,"MEAN_MOTION_DDOT":0},{"OBJECT_NAME":"OV1-13","OBJECT_ID":"1968-026A","EPOCH":"2026-03-09T15:59:09.471840","MEAN_MOTION":7.25825255,"ECCENTRICITY":0.38574237,"INCLINATION":99.9528,"RA_OF_ASC_NODE":2.2538,"ARG_OF_PERICENTER":11.8695,"MEAN_ANOMALY":355.1726,"EPHEMERIS_TYPE":0,"CLASSIFICATION_TYPE":"U","NORAD_CAT_ID":3173,"ELEMENT_SET_NO":999,"REV_AT_EPOCH":53098,"BSTAR":0.00056652782,"MEAN_MOTION_DOT":4.15e-6,"MEAN_MOTION_DDOT":0}]
